ALSAT 1                 
1 27559U 02054A   09243.17286113  .00000009  00000-0  96452-5 0  6779
2 27559  97.9290 115.9179 0024492 115.6915 244.6820 14.69331375360735
NIGERIASAT 1            
1 27941U 03042C   09243.10413983  .00000083  00000-0  25010-4 0  7484
2 27941  97.9317 115.0308 0010193 261.2946  98.7108 14.63030085316499
UK-DMC                  
1 27942U 03042D   09243.13678692  .00000013  00000-0  11406-4 0  7407
2 27942  97.9308 114.8080 0009820 269.9172  90.0905 14.63026391316490
BILSAT 1                
1 27943U 03042E   09243.12423545 -.00000026  00000-0  37888-5 0  5914
2 27943  97.9298 114.5335 0010309 259.0030 101.0014 14.62913887316483
BEIJING 1               
1 28890U 05043A   09243.19366014 -.00000026  00000-0  40508-5 0  4702
2 28890  98.0400 131.5877 0016693 108.6381 251.6634 14.60066777204854
HJ-1A                   
1 33320U 08041A   09243.14866123  .00000054  00000-0  15637-4 0   944
2 33320  97.9768 317.7071 0024259 197.8583 162.1781 14.75167434 52946
HJ-1B                   
1 33321U 08041B   09243.18189838  .00000034  00000-0  12683-4 0  1239
2 33321  97.9781 317.7361 0042365 211.2386 148.6312 14.75173029 52939
YAOGAN 4                
1 33446U 08061A   09243.08992362 -.00000445  00000-0 -57799-4 0  8414
2 33446  97.8996 322.3662 0014527 141.6578 218.5670 14.75649198 40248
YAOGAN 5                
1 33456U 08064A   09243.19955191  .00000485  00000-0  22308-4 0  8284
2 33456  97.3692 317.1270 0007060 107.0253 337.5430 15.24915214 39484
DEIMOS-1                
1 35681U 09041A   09243.12429525  .00000021  00000-0  11628-4 0  1037
2 35681  98.1253 137.3625 0028923 244.2316 115.5908 14.71628949  4752
UK-DMC 2                
1 35683U 09041C   09243.22440565  .00000004  00000-0  88523-5 0  1015
2 35683  98.1254 137.5467 0036167 248.7870 110.9482 14.73239705  4772
